OBJECT_NAME,OBJECT_ID,EPOCH,MEAN_MOTION,ECCENTRICITY,INCLINATION,RA_OF_ASC_NODE,ARG_OF_PERICENTER,MEAN_ANOMALY,EPHEMERIS_TYPE,CLASSIFICATION_TYPE,NORAD_CAT_ID,ELEMENT_SET_NO,REV_AT_EPOCH,BSTAR,MEAN_MOTION_DOT,MEAN_MOTION_DDOT
CENTISPACE-1 GROUP 05 OBJECT J,2026-138J,2026-06-30T11:38:02.114016,14.15848858,.0008532,55.1404,232.0317,309.8156,50.2067,0,U,69636,999,187,-.12139808E-3,-.393E-5,0
VICTUS HAZE PUMA,2026-142A,2026-06-30T13:44:54.517344,15.20748384,.00209525,97.4475,79.0430,278.7628,81.1234,0,U,69646,999,170,.16721242E-3,.363E-4,0
HOKUSHIN-1,1998-067YH,2026-06-30T12:51:07.749504,15.50397000,.00061624,51.6312,233.9553,274.0877,85.9407,0,U,69648,999,172,.38606417E-3,.21961E-3,0
STARLINK-37656,2026-143A,2026-06-30T12:00:02.000160,15.80809942,.0000276,97.2829,225.0111,25.1129,208.1532,0,U,69649,999,260,-.33480512E-3,-.63783E-3,0
STARLINK-37646,2026-143B,2026-06-30T12:00:02.000160,15.80763796,.00013755,97.2830,225.0245,85.3103,179.9914,0,U,69650,999,260,.52411061E-3,.10118E-2,0
STARLINK-37749,2026-143C,2026-06-30T12:00:02.000160,15.80754272,.0001117,97.2830,225.0289,95.0670,181.1684,0,U,69651,999,260,.6276086E-3,.121417E-2,0
STARLINK-37819,2026-143D,2026-06-30T12:00:02.000160,15.80768855,.00013174,97.2832,225.0185,95.6609,152.7893,0,U,69652,999,260,.6791106E-3,.131636E-2,0
STARLINK-37729,2026-143E,2026-06-30T12:00:02.000160,15.80770554,.00007621,97.2832,225.0274,112.5363,159.2908,0,U,69653,999,260,.4795219E-3,.92494E-3,0
STARLINK-37838,2026-143F,2026-06-30T12:00:02.000160,15.80775319,.00012034,97.2829,225.0196,90.9318,161.6251,0,U,69654,999,260,.60095447E-3,.116298E-2,0
STARLINK-37884,2026-143G,2026-06-30T12:00:02.000160,15.81980599,.00017118,97.2822,225.0403,101.8783,198.5257,0,U,69655,999,260,-.84759704E-2,-.1512245E-1,0
STARLINK-37876,2026-143H,2026-06-30T12:00:02.000160,15.80776436,.00007962,97.2830,225.0302,127.3052,151.6149,0,U,69656,999,250,.55433334E-3,.107156E-2,0
STARLINK-37784,2026-143J,2026-06-30T12:00:02.000160,15.80787740,.00010697,97.2831,225.0309,83.0718,197.6472,0,U,69657,999,250,.46287835E-3,.89317E-3,0
STARLINK-37851,2026-143K,2026-06-30T12:00:02.000160,15.83125658,.00014563,97.2821,225.0402,90.1402,213.3588,0,U,69658,999,249,-.79501826E-2,-.1498534E-1,0
STARLINK-37229,2026-143L,2026-06-30T12:00:02.000160,15.80767545,.00013593,97.2832,225.0227,96.7265,162.9117,0,U,69659,999,254,.64528541E-3,.124969E-2,0
STARLINK-37556,2026-143M,2026-06-30T12:00:02.000160,15.80737118,.00013891,97.2827,225.0258,121.0688,149.0741,0,U,69660,999,254,.9660942E-3,.18828E-2,0
STARLINK-37867,2026-143N,2026-06-30T12:00:02.000160,15.83742220,.00014127,97.2818,225.0450,99.3053,215.2095,0,U,69661,999,250,-.74864697E-2,-.1458113E-1,0
STARLINK-37852,2026-143P,2026-06-30T12:00:02.000160,15.80780156,.00011099,97.2828,225.0275,79.6296,193.5475,0,U,69662,999,250,.47753828E-3,.92149E-3,0
STARLINK-37554,2026-143Q,2026-06-30T12:00:02.000160,15.80811864,.0000927,97.2826,225.0430,97.0067,214.3541,0,U,69663,999,254,-.18008595E-3,-.34493E-3,0
STARLINK-37830,2026-143R,2026-06-30T12:00:02.000160,15.80760327,.00009203,97.2829,225.0286,137.4570,140.3559,0,U,69664,999,249,.55402965E-3,.107017E-2,0
STARLINK-37837,2026-143S,2026-06-30T12:00:02.000160,15.80673001,.00005797,97.2828,225.0451,141.9415,173.2126,0,U,69665,999,250,.13364832E-2,.261991E-2,0
STARLINK-37943,2026-143T,2026-06-30T12:00:02.000160,15.80824844,.0001644,97.2826,225.0414,119.0659,185.7936,0,U,69666,999,250,.48126527E-4,.909E-4,0
STARLINK-37941,2026-143U,2026-06-30T12:00:02.000160,15.80764953,.00013991,97.2828,225.0375,84.4758,212.2118,0,U,69667,999,250,.72734916E-3,.141126E-2,0
STARLINK-37930,2026-143V,2026-06-30T12:00:02.000160,15.80744996,.00011633,97.2827,225.0401,97.0167,205.7063,0,U,69668,999,249,.77038432E-3,.149492E-2,0
STARLINK-37945,2026-143W,2026-06-30T12:00:02.000160,15.80747243,.00008143,97.2832,225.0446,79.4693,233.2155,0,U,69669,999,250,.77570485E-3,.150559E-2,0
STARLINK-37948,2026-143X,2026-06-30T12:00:02.000160,15.87145641,.00011954,97.2833,225.0735,77.8486,301.7526,0,U,69670,999,250,-.10210342E-1,-.2250541E-1,0
STARLINK-37949,2026-143Y,2026-06-30T12:00:02.000160,15.84768668,.00012935,97.2829,225.0638,74.7748,284.1572,0,U,69671,999,250,-.11835864E-1,-.2367502E-1,0
