CENTISPACE-1 GROUP 05 O*
1 69636U 26138J   26181.48474669 -.00000393  00000+0 -12140-3 0  9993
2 69636  55.1404 232.0317 0008532 309.8156  50.2067 14.15848858  1877
VICTUS HAZE PUMA        
1 69646U 26142A   26181.57285321  .00003630  00000+0  16721-3 0  9998
2 69646  97.4475  79.0430 0020952 278.7628  81.1234 15.20748384  1709
HOKUSHIN-1              
1 69648U 98067YH  26181.53550636  .00021961  00000+0  38606-3 0  9998
2 69648  51.6312 233.9553 0006162 274.0877  85.9407 15.50397000  1726
STARLINK-37656          
1 69649U 26143A   26181.50002315 -.00063783  00000+0 -33481-3 0  9994
2 69649  97.2829 225.0111 0000276  25.1129 208.1532 15.80809942  2605
STARLINK-37646          
1 69650U 26143B   26181.50002315  .00101180  00000+0  52411-3 0  9992
2 69650  97.2830 225.0245 0001375  85.3103 179.9914 15.80763796  2603
STARLINK-37749          
1 69651U 26143C   26181.50002315  .00121417  00000+0  62761-3 0  9997
2 69651  97.2830 225.0289 0001117  95.0670 181.1684 15.80754272  2601
STARLINK-37819          
1 69652U 26143D   26181.50002315  .00131636  00000+0  67911-3 0  9994
2 69652  97.2832 225.0185 0001317  95.6609 152.7893 15.80768855  2607
STARLINK-37729          
1 69653U 26143E   26181.50002315  .00092494  00000+0  47952-3 0  9996
2 69653  97.2832 225.0274 0000762 112.5363 159.2908 15.80770554  2604
STARLINK-37838          
1 69654U 26143F   26181.50002315  .00116298  00000+0  60095-3 0  9999
2 69654  97.2829 225.0196 0001203  90.9318 161.6251 15.80775319  2606
STARLINK-37884          
1 69655U 26143G   26181.50002315 -.01512245  00000+0 -84760-2 0  9999
2 69655  97.2822 225.0403 0001711 101.8783 198.5257 15.81980599  2607
STARLINK-37876          
1 69656U 26143H   26181.50002315  .00107156  00000+0  55433-3 0  9994
2 69656  97.2830 225.0302 0000796 127.3052 151.6149 15.80776436  2500
STARLINK-37784          
1 69657U 26143J   26181.50002315  .00089317  00000+0  46288-3 0  9991
2 69657  97.2831 225.0309 0001069  83.0718 197.6472 15.80787740  2509
STARLINK-37851          
1 69658U 26143K   26181.50002315 -.01498534  00000+0 -79502-2 0  9994
2 69658  97.2821 225.0402 0001456  90.1402 213.3588 15.83125658  2491
STARLINK-37229          
1 69659U 26143L   26181.50002315  .00124969  00000+0  64529-3 0  9994
2 69659  97.2832 225.0227 0001359  96.7265 162.9117 15.80767545  2547
STARLINK-37556          
1 69660U 26143M   26181.50002315  .00188280  00000+0  96609-3 0  9996
2 69660  97.2827 225.0258 0001389 121.0688 149.0741 15.80737118  2543
STARLINK-37867          
1 69661U 26143N   26181.50002315 -.01458113  00000+0 -74865-2 0  9994
2 69661  97.2818 225.0450 0001412  99.3053 215.2095 15.83742220  2505
STARLINK-37852          
1 69662U 26143P   26181.50002315  .00092149  00000+0  47754-3 0  9993
2 69662  97.2828 225.0275 0001109  79.6296 193.5475 15.80780156  2502
STARLINK-37554          
1 69663U 26143Q   26181.50002315 -.00034493  00000+0 -18009-3 0  9995
2 69663  97.2826 225.0430 0000927  97.0067 214.3541 15.80811864  2542
STARLINK-37830          
1 69664U 26143R   26181.50002315  .00107017  00000+0  55403-3 0  9996
2 69664  97.2829 225.0286 0000920 137.4570 140.3559 15.80760327  2494
STARLINK-37837          
1 69665U 26143S   26181.50002315  .00261991  00000+0  13365-2 0  9999
2 69665  97.2828 225.0451 0000579 141.9415 173.2126 15.80673001  2505
STARLINK-37943          
1 69666U 26143T   26181.50002315  .00009090  00000+0  48127-4 0  9996
2 69666  97.2826 225.0414 0001644 119.0659 185.7936 15.80824844  2503
STARLINK-37941          
1 69667U 26143U   26181.50002315  .00141126  00000+0  72735-3 0  9995
2 69667  97.2828 225.0375 0001399  84.4758 212.2118 15.80764953  2506
STARLINK-37930          
1 69668U 26143V   26181.50002315  .00149492  00000+0  77038-3 0  9991
2 69668  97.2827 225.0401 0001163  97.0167 205.7063 15.80744996  2498
STARLINK-37945          
1 69669U 26143W   26181.50002315  .00150559  00000+0  77570-3 0  9999
2 69669  97.2832 225.0446 0000814  79.4693 233.2155 15.80747243  2502
STARLINK-37948          
1 69670U 26143X   26181.50002315 -.02250541  00000+0 -10210-1 0  9993
2 69670  97.2833 225.0735 0001195  77.8486 301.7526 15.87145641  2505
STARLINK-37949          
1 69671U 26143Y   26181.50002315 -.02367502  00000+0 -11836-1 0  9995
2 69671  97.2829 225.0638 0001293  74.7748 284.1572 15.84768668  2501
